BEESAT-4                
1 41619U 16040W   22348.38165944  .00021888  00000+0  59797-3 0  9997
2 41619  97.1922  34.6184 0007701 178.0598 182.0678 15.37383646348308
CAS-2T & KS-1Q          
1 41847U 16066G   22347.42197364  .00000859  00000+0  13736-3 0  9991
2 41847  98.5303  51.7334 0363155  34.4744 327.9430 14.38950690320082
NAYIF-1 (EO-88)         
1 42017U 17008BX  22348.42275281  .00030860  00000+0  71691-3 0  9993
2 42017  97.2465  52.5054 0003195 338.0668  22.0443 15.42293617324736
ZHUHAI-1 02 (CAS-4B)    
1 42759U 17034B   22348.53258848  .00006467  00000+0  36666-3 0  9996
2 42759  43.0180  59.0743 0010808 342.8370 150.9329 15.13505301303624
ZHUHAI-1 01 (CAS-4A)    
1 42761U 17034D   22348.62077152  .00006668  00000+0  37655-3 0  9998
2 42761  43.0177  57.2426 0011113 345.3985 131.0770 15.13602750303649
MAX VALIER SAT          
1 42778U 17036P   22348.35709887  .00012486  00000+0  42435-3 0  9992
2 42778  97.1836  23.4229 0011372  51.9333 308.2932 15.30535458304388
RADFXSAT (FOX-1B)       
1 43017U 17073E   22348.23319720  .00007594  00000+0  56021-3 0  9990
2 43017  97.6523 234.9965 0242724 318.7255  39.5829 14.82923729273745
FOX-1D (AO-92)          
1 43137U 18004AC  22348.46415230  .00016020  00000+0  49290-3 0  9990
2 43137  97.3519  62.2906 0008437  84.0621 276.1582 15.33709157273893
DIWATA-2B               
1 43678U 18084H   22348.48006441  .00001642  00000+0  16541-3 0  9997
2 43678  97.9953 124.1865 0010874  57.2680 302.9601 14.92550068224703
ES'HAIL 2               
1 43700U 18090A   22348.51422664  .00000164  00000+0  00000+0 0  9990
2 43700   0.0124 304.3521 0001596 354.9765 354.7841  1.00273227 14833
FOX-1CLIFF (AO-95)      
1 43770U 18099N   22347.87606380  .00003250  00000+0  28347-3 0  9990
2 43770  97.6011  49.4614 0014986  39.4506 320.7804 14.97449744219852
ITASAT 1                
1 43786U 18099AE  22348.39345054  .00003599  00000+0  31337-3 0  9992
2 43786  97.6029  50.9690 0015157  31.3230 328.8892 14.97455956219976
JY1SAT (JO-97)          
1 43803U 18099AX  22348.40671727  .00004191  00000+0  35716-3 0  9997
2 43803  97.6005  50.8114 0015288  30.3946 329.8160 14.98194964220003
UWE-4                   
1 43880U 18111E   22348.47321289  .00004408  00000+0  36471-3 0  9999
2 43880  97.6558 251.6246 0012800  81.2499 279.0173 14.99349578216664
NEXUS (FO-99)           
1 43937U 19003F   22348.52717663  .00018464  00000+0  52539-3 0  9994
2 43937  97.1123  15.2532 0016474 223.5751 136.4193 15.36038230217565
PSAT2 (NO-104)          
1 44354U 19036R   22347.71187233  .00154117 -25561-6  70437-3 0  9998
2 44354  28.5211 353.3749 0136314 227.5786 131.3220 15.69605493192541
JAISAT-1                
1 44419U 19038F   22348.42974172  .00012110  00000+0  54939-3 0  9995
2 44419  97.6584 320.6216 0015929 224.6619 135.3334 15.20858522190379
DUCHIFAT-3              
1 44854U 19089C   22348.51358627  .00006146  00000+0  45839-3 0  9996
2 44854  36.9638 111.8331 0007948 252.7642 194.4914 15.02579324165019
CAS-6 (TIANQIN 1)       
1 44881U 19093C   22348.33064273  .00000852  00000+0  11399-3 0  9994
2 44881  97.8803  64.8503 0014142 325.3812  34.6492 14.81970357161410
RS-44 & BREEZE-KM R/B   
1 44909U 19096E   22348.40025761  .00000034  00000+0  97509-4 0  9995
2 44909  82.5207 110.7373 0216506 258.9097  98.7590 12.79717026138523
ORBITAL FACTORY 2 (OF-2)
1 45113U 19071C   22347.44315001  .00065984  00000+0  81358-3 0  9997
2 45113  51.6338 251.4258 0011441 118.8678 241.3464 15.59490883161159
HUSKYSAT-1 (HO-107)     
1 45119U 19071J   22347.77235875  .00048224  00000+0  67217-3 0  9995
2 45119  51.6334 252.0894 0011085 114.7411 245.4735 15.56360703161169
BY70-2                  
1 45857U 20042B   22348.21690238  .00011069  00000+0  13811-2 0  9999
2 45857  97.9431  63.5271 0009275 246.6205 113.4033 14.82543055132059
SALSAT                  
1 46495U 20068K   22348.48549650  .00002919  00000+0  20699-3 0  9993
2 46495  97.7496 290.1101 0017285  32.4041 327.8243 15.05467744121267
BY70-3                  
1 46839U 20079N   22348.45541140  .00051866  00000+0  81435-3 0  9990
2 46839  97.1787  59.1537 0004542  51.6588  74.3918 15.53492193118069
RADFXSAT-2 (AO-109)     
1 47311U 21002C   22348.42545138  .00012164  00000+0  42900-3 0  9993
2 47311  60.6851  43.1511 0038946  82.6035 277.9478 15.28968920105946
UVSQ-SAT                
1 47438U 21006AB  22347.13295057  .00008896  00000+0  43810-3 0  9994
2 47438  97.4138  42.5005 0011747  21.9901 338.1835 15.18142469104364
DIY-1 (ARDUIQUBE)       
1 47963U 21022AH  22347.68933201  .00029398  00000+0  13201-2 0  9995
2 47963  97.5166 247.5823 0011704 230.7689 129.2508 15.21059513 94118
XW-3 (CAS-9)            
1 50466U 21131B   22348.52863902  .00000328  00000+0  12182-3 0  9992
2 50466  98.5683  65.5813 0003870 344.3382  15.7684 14.38593738 50800
TEVEL-3                 
1 50988U 22002E   22348.47698153  .00011680  00000+0  58760-3 0  9992
2 50988  97.4619  52.5556 0009835 152.9960 334.8956 15.17339031 50683
TEVEL-8                 
1 50989U 22002F   22348.48884838  .00011732  00000+0  59114-3 0  9993
2 50989  97.4623  52.6040 0009918 152.0295 338.0473 15.17283456 50681
TEVEL-5                 
1 50998U 22002Q   22348.50337281  .00012341  00000+0  61060-3 0  9991
2 50998  97.4602  52.7910 0011076 148.2579 338.2833 15.17897749 50706
TEVEL-6                 
1 50999U 22002R   22348.43603547  .00012315  00000+0  60919-3 0  9998
2 50999  97.4605  52.7218 0011355 148.6911 335.3131 15.17902313 50696
TEVEL-1                 
1 51013U 22002AF  22348.48231168  .00011663  00000+0  58729-3 0  9998
2 51013  97.4611  52.5261 0009669 152.8130 334.6347 15.17309000 50686
TEVEL-7                 
1 51062U 22002CG  22348.49086154  .00011851  00000+0  59709-3 0  9994
2 51062  97.4621  52.5866 0009740 151.3824 338.4712 15.17283853 50681
TEVEL-4                 
1 51063U 22002CH  22348.49234090  .00011764  00000+0  59305-3 0  9994
2 51063  97.4615  52.5811 0009730 151.3363 336.5126 15.17264623 50684
TEVEL-2                 
1 51069U 22002CP  22348.47850778  .00011711  00000+0  58925-3 0  9994
2 51069  97.4614  52.5369 0009647 152.2266 334.2792 15.17334727 50683
GREENCUBE               
1 53106U 22080B   22340.05508001 -.00000003  00000+0  00000+0 0  9999
2 53106  70.1754  26.8219 0009008 228.0435 131.9458  6.42557522  9345
YUZGU 9 (RS3S)          
1 53308U 98067TT  22348.47255318  .00157322  00000+0  11715-2 0  9999
2 53308  51.6339 154.6915 0006846 217.8315 142.2203 15.71747370 22808
YUZGU 7 (RS1S)          
1 53309U 98067TU  22348.50986676  .00162495  00000+0  11651-2 0  9998
2 53309  51.6331 154.1819 0007305 222.3374 137.7062 15.72618989 22767
YUZGU 11 (RS5S)         
1 53310U 98067TV  22348.47126653  .00161768  00000+0  12011-2 0  9990
2 53310  51.6339 154.6822 0007114 218.9796 141.0690 15.71799052 22780
YUZGU 12 (RS6S)         
1 53311U 98067TW  22347.72004118  .00161810  00000+0  11290-2 0  9995
2 53311  51.6328 157.9043 0007000 214.4781 145.5764 15.73262950 22694
TSIOLKOVSKY-RYAZAN 1 (*)
1 53312U 98067TX  22348.51498265  .00160721  00000+0  11701-2 0  9991
2 53312  51.6338 154.2254 0007481 222.9322 137.1093 15.72263953 22750
TSIOLKOVSKY-RYAZAN 2 (*)
1 53313U 98067TY  22348.50942992  .00156516  00000+0  11344-2 0  9992
2 53313  51.6342 154.1884 0007021 223.8133 136.2309 15.72387726 22805
YUZGU 10 (RS4S)         
1 53321U 98067TZ  22348.52404512  .00157282  00000+0  11494-2 0  9991
2 53321  51.6333 154.2838 0007073 220.7485 139.2985 15.72190032 22802
RS29S (SXC3-2110 CYCLO*)
1 53373U 22096D   22348.49973273  .00016314  00000+0  60673-3 0  9992
2 53373  97.4283 249.1781 0003382  81.8350  92.5123 15.27588309 19391
RS32S (SXC3-212 MONITO*)
1 53374U 22096E   22348.49115764  .00014455  00000+0  53767-3 0  9996
2 53374  97.4282 249.1819 0003394  75.0388  97.0219 15.27609319 19393
RS34S (SXC3-218 KUZBAS*)
1 53375U 22096F   22348.56245550  .00013490  00000+0  50839-3 0  9997
2 53375  97.4280 249.2223 0003472  77.6693  42.8999 15.27191972 19402
RS23S (SXC3-21 UTMN)    
1 53376U 22096G   22348.61814031  .00013881  00000+0  52173-3 0  9997
2 53376  97.4278 249.2867 0003469  72.4281  14.0645 15.27274348 19415
RS28S (SXC3-214 MIET-A*)
1 53377U 22096H   22348.42652921  .00012934  00000+0  48768-3 0  9998
2 53377  97.4280 249.0976 0003518  75.8696  38.3855 15.27184845 19380
RS26S (KAI-1)           
1 53378U 22096J   22348.50953539  .00011613  00000+0  44114-3 0  9991
2 53378  97.4280 249.1635 0003438  70.0133 104.4381 15.26966610 19395
RS19S (SXC3-219 ISOI)   
1 53381U 22096M   22348.52040685  .00013427  00000+0  49813-3 0  9992
2 53381  97.4281 249.2797 0004996  23.2267 102.2410 15.27708257 19401
RS21S (CUBESX-HSE-2)    
1 53383U 22096P   22348.63690890  .00013600  00000+0  50348-3 0  9993
2 53383  97.4288 249.4060 0005204  22.5626  42.7030 15.27773034 19422
RS30S (SXC3-217 SIREN)  
1 53384U 22096Q   22348.64179356  .00011541  00000+0  43040-3 0  9997
2 53384  97.4280 249.4001 0005140  21.8402  46.3239 15.27571562 19426
RS20S (GEOSCAN-EDELVEIS)
1 53385U 22096R   22348.60630466  .00017243  00000+0  62187-3 0  9996
2 53385  97.4281 249.4563 0005661  19.3392  79.0206 15.28579265 19458
RS33S (SXC3-215 VIZARD) 
1 53386U 22096S   22348.50464325  .00020238  00000+0  71036-3 0  9996
2 53386  97.4278 249.4483 0006463  17.9059 105.6227 15.29428377 19436
